{
  "type": "FeatureCollection",
  "features": [
    {
      "type": "Feature",
      "properties": {
        "OBJECT_NAME": "DMSP 5D-3 F16 (USA 172)",
        "OBJECT_ID": "2003-048A",
        "EPOCH": "2025-11-29T20:20:27.627072",
        "MEAN_MOTION": 14.1441675,
        "ECCENTRICITY": 0.0007063,
        "INCLINATION": 99.0057,
        "RA_OF_ASC_NODE": 351.2026,
        "ARG_OF_PERICENTER": 359.6479,
        "MEAN_ANOMALY": 173.3008,
        "EPHEMERIS_TYPE": 0,
        "CLASSIFICATION_TYPE": "U",
        "NORAD_CAT_ID": 28054,
        "ELEMENT_SET_NO": 999,
        "REV_AT_EPOCH": 14130,
        "BSTAR": 9.656e-05,
        "MEAN_MOTION_DOT": 1.39e-06,
        "MEAN_MOTION_DDOT": 0,
        "norad_id": 28054,
        "name": "DMSP 5D-3 F16 (USA 172)",
        "group": "weather",
        "longitude_deg": NaN,
        "latitude_deg": NaN,
        "alt_km": NaN,
        "orbit_class": "HEO",
        "timestamp": "2025-11-30T07:29:52.806210+00:00"
      },
      "geometry": {
        "type": "Point",
        "coordinates": [
          NaN,
          NaN
        ]
      }
    },
    {
      "type": "Feature",
      "properties": {
        "OBJECT_NAME": "METEOSAT-9 (MSG-2)",
        "OBJECT_ID": "2005-049B",
        "EPOCH": "2025-11-29T19:13:38.719776",
        "MEAN_MOTION": 1.00270146,
        "ECCENTRICITY": 0.000386,
        "INCLINATION": 8.9079,
        "RA_OF_ASC_NODE": 56.0924,
        "ARG_OF_PERICENTER": 183.3435,
        "MEAN_ANOMALY": 163.5321,
        "EPHEMERIS_TYPE": 0,
        "CLASSIFICATION_TYPE": "U",
        "NORAD_CAT_ID": 28912,
        "ELEMENT_SET_NO": 999,
        "REV_AT_EPOCH": 499,
        "BSTAR": 0,
        "MEAN_MOTION_DOT": 1.44e-06,
        "MEAN_MOTION_DDOT": 0,
        "norad_id": 28912,
        "name": "METEOSAT-9 (MSG-2)",
        "group": "weather",
        "longitude_deg": NaN,
        "latitude_deg": NaN,
        "alt_km": NaN,
        "orbit_class": "HEO",
        "timestamp": "2025-11-30T07:29:52.806546+00:00"
      },
      "geometry": {
        "type": "Point",
        "coordinates": [
          NaN,
          NaN
        ]
      }
    },
    {
      "type": "Feature",
      "properties": {
        "OBJECT_NAME": "DMSP 5D-3 F17 (USA 191)",
        "OBJECT_ID": "2006-050A",
        "EPOCH": "2025-11-29T19:54:48.627936",
        "MEAN_MOTION": 14.14910724,
        "ECCENTRICITY": 0.0009117,
        "INCLINATION": 98.7396,
        "RA_OF_ASC_NODE": 339.4875,
        "ARG_OF_PERICENTER": 265.1839,
        "MEAN_ANOMALY": 94.8293,
        "EPHEMERIS_TYPE": 0,
        "CLASSIFICATION_TYPE": "U",
        "NORAD_CAT_ID": 29522,
        "ELEMENT_SET_NO": 999,
        "REV_AT_EPOCH": 98422,
        "BSTAR": 0.00012327,
        "MEAN_MOTION_DOT": 1.95e-06,
        "MEAN_MOTION_DDOT": 0,
        "norad_id": 29522,
        "name": "DMSP 5D-3 F17 (USA 191)",
        "group": "weather",
        "longitude_deg": NaN,
        "latitude_deg": NaN,
        "alt_km": NaN,
        "orbit_class": "HEO",
        "timestamp": "2025-11-30T07:29:52.806679+00:00"
      },
      "geometry": {
        "type": "Point",
        "coordinates": [
          NaN,
          NaN
        ]
      }
    },
    {
      "type": "Feature",
      "properties": {
        "OBJECT_NAME": "FENGYUN 3A",
        "OBJECT_ID": "2008-026A",
        "EPOCH": "2025-11-29T13:48:05.332608",
        "MEAN_MOTION": 14.19507809,
        "ECCENTRICITY": 0.0008553,
        "INCLINATION": 98.6677,
        "RA_OF_ASC_NODE": 273.3803,
        "ARG_OF_PERICENTER": 350.6196,
        "MEAN_ANOMALY": 9.4819,
        "EPHEMERIS_TYPE": 0,
        "CLASSIFICATION_TYPE": "U",
        "NORAD_CAT_ID": 32958,
        "ELEMENT_SET_NO": 999,
        "REV_AT_EPOCH": 90708,
        "BSTAR": 8.4124e-05,
        "MEAN_MOTION_DOT": 1.34e-06,
        "MEAN_MOTION_DDOT": 0,
        "norad_id": 32958,
        "name": "FENGYUN 3A",
        "group": "weather",
        "longitude_deg": NaN,
        "latitude_deg": NaN,
        "alt_km": NaN,
        "orbit_class": "HEO",
        "timestamp": "2025-11-30T07:29:52.807098+00:00"
      },
      "geometry": {
        "type": "Point",
        "coordinates": [
          NaN,
          NaN
        ]
      }
    },
    {
      "type": "Feature",
      "properties": {
        "OBJECT_NAME": "GOES 14",
        "OBJECT_ID": "2009-033A",
        "EPOCH": "2025-11-29T15:04:07.197312",
        "MEAN_MOTION": 1.00272821,
        "ECCENTRICITY": 0.0004031,
        "INCLINATION": 1.1621,
        "RA_OF_ASC_NODE": 85.5663,
        "ARG_OF_PERICENTER": 146.8302,
        "MEAN_ANOMALY": 314.0533,
        "EPHEMERIS_TYPE": 0,
        "CLASSIFICATION_TYPE": "U",
        "NORAD_CAT_ID": 35491,
        "ELEMENT_SET_NO": 999,
        "REV_AT_EPOCH": 459,
        "BSTAR": 0,
        "MEAN_MOTION_DOT": -4.6e-07,
        "MEAN_MOTION_DDOT": 0,
        "norad_id": 35491,
        "name": "GOES 14",
        "group": "weather",
        "longitude_deg": NaN,
        "latitude_deg": NaN,
        "alt_km": NaN,
        "orbit_class": "HEO",
        "timestamp": "2025-11-30T07:29:52.807333+00:00"
      },
      "geometry": {
        "type": "Point",
        "coordinates": [
          NaN,
          NaN
        ]
      }
    },
    {
      "type": "Feature",
      "properties": {
        "OBJECT_NAME": "DMSP 5D-3 F18 (USA 210)",
        "OBJECT_ID": "2009-057A",
        "EPOCH": "2025-11-29T20:30:26.377344",
        "MEAN_MOTION": 14.14757202,
        "ECCENTRICITY": 0.0012079,
        "INCLINATION": 98.8821,
        "RA_OF_ASC_NODE": 310.3207,
        "ARG_OF_PERICENTER": 96.2339,
        "MEAN_ANOMALY": 264.021,
        "EPHEMERIS_TYPE": 0,
        "CLASSIFICATION_TYPE": "U",
        "NORAD_CAT_ID": 35951,
        "ELEMENT_SET_NO": 999,
        "REV_AT_EPOCH": 83140,
        "BSTAR": 0.00015604,
        "MEAN_MOTION_DOT": 2.56e-06,
        "MEAN_MOTION_DDOT": 0,
        "norad_id": 35951,
        "name": "DMSP 5D-3 F18 (USA 210)",
        "group": "weather",
        "longitude_deg": NaN,
        "latitude_deg": NaN,
        "alt_km": NaN,
        "orbit_class": "HEO",
        "timestamp": "2025-11-30T07:29:52.807484+00:00"
      },
      "geometry": {
        "type": "Point",
        "coordinates": [
          NaN,
          NaN
        ]
      }
    },
    {
      "type": "Feature",
      "properties": {
        "OBJECT_NAME": "EWS-G2 (GOES 15)",
        "OBJECT_ID": "2010-008A",
        "EPOCH": "2025-11-29T18:59:54.524256",
        "MEAN_MOTION": 1.00267575,
        "ECCENTRICITY": 0.0005758,
        "INCLINATION": 0.7786,
        "RA_OF_ASC_NODE": 86.0423,
        "ARG_OF_PERICENTER": 167.8006,
        "MEAN_ANOMALY": 161.623,
        "EPHEMERIS_TYPE": 0,
        "CLASSIFICATION_TYPE": "U",
        "NORAD_CAT_ID": 36411,
        "ELEMENT_SET_NO": 999,
        "REV_AT_EPOCH": 5763,
        "BSTAR": 0,
        "MEAN_MOTION_DOT": 5.9e-07,
        "MEAN_MOTION_DDOT": 0,
        "norad_id": 36411,
        "name": "EWS-G2 (GOES 15)",
        "group": "weather",
        "longitude_deg": NaN,
        "latitude_deg": NaN,
        "alt_km": NaN,
        "orbit_class": "HEO",
        "timestamp": "2025-11-30T07:29:52.807625+00:00"
      },
      "geometry": {
        "type": "Point",
        "coordinates": [
          NaN,
          NaN
        ]
      }
    },
    {
      "type": "Feature",
      "properties": {
        "OBJECT_NAME": "COMS 1",
        "OBJECT_ID": "2010-032A",
        "EPOCH": "2025-11-29T19:57:51.782112",
        "MEAN_MOTION": 1.00271361,
        "ECCENTRICITY": 9.25e-05,
        "INCLINATION": 4.3075,
        "RA_OF_ASC_NODE": 78.1398,
        "ARG_OF_PERICENTER": 172.6867,
        "MEAN_ANOMALY": 245.793,
        "EPHEMERIS_TYPE": 0,
        "CLASSIFICATION_TYPE": "U",
        "NORAD_CAT_ID": 36744,
        "ELEMENT_SET_NO": 999,
        "REV_AT_EPOCH": 4909,
        "BSTAR": 0,
        "MEAN_MOTION_DOT": -3.22e-06,
        "MEAN_MOTION_DDOT": 0,
        "norad_id": 36744,
        "name": "COMS 1",
        "group": "weather",
        "longitude_deg": NaN,
        "latitude_deg": NaN,
        "alt_km": NaN,
        "orbit_class": "HEO",
        "timestamp": "2025-11-30T07:29:52.807739+00:00"
      },
      "geometry": {
        "type": "Point",
        "coordinates": [
          NaN,
          NaN
        ]
      }
    }
  ]
}