DMSP 5D-3 F16 (USA 172) 
1 28054U 03048A   25333.84754198  .00000139  00000+0  96560-4 0  9998
2 28054  99.0057 351.2026 0007063 359.6479 173.3008 14.14416750141303
METEOSAT-9 (MSG-2)      
1 28912U 05049B   25333.80114259  .00000144  00000+0  00000+0 0  9993
2 28912   8.9079  56.0924 0003860 183.3435 163.5321  1.00270146  4991
DMSP 5D-3 F17 (USA 191) 
1 29522U 06050A   25333.82972949  .00000195  00000+0  12327-3 0  9999
2 29522  98.7396 339.4875 0009117 265.1839  94.8293 14.14910724984228
FENGYUN 3A              
1 32958U 08026A   25333.57506172  .00000134  00000+0  84124-4 0  9992
2 32958  98.6677 273.3803 0008553 350.6196   9.4819 14.19507809907088
GOES 14                 
1 35491U 09033A   25333.62786108 -.00000046  00000+0  00000+0 0  9990
2 35491   1.1621  85.5663 0004031 146.8302 314.0533  1.00272821  4590
DMSP 5D-3 F18 (USA 210) 
1 35951U 09057A   25333.85447196  .00000256  00000+0  15604-3 0  9995
2 35951  98.8821 310.3207 0012079  96.2339 264.0210 14.14757202831402
EWS-G2 (GOES 15)        
1 36411U 10008A   25333.79160329  .00000059  00000+0  00000+0 0  9999
2 36411   0.7786  86.0423 0005758 167.8006 161.6230  1.00267575 57634
COMS 1                  
1 36744U 10032A   25333.83184933 -.00000322  00000+0  00000+0 0  9991
2 36744   4.3075  78.1398 0000925 172.6867 245.7930  1.00271361 49097
